{"type": "FeatureCollection", "features": [ {"type": "Feature", "properties": {"norad_id": 28659, "name": "DIRECTV 8", "group": "intelsat", "lat": 0.0071010134605166975, "lon": 33.8961673512885, "alt_km": 35790.61497888351, "timestamp": "2025-12-25T03:55:55.974725+00:00", "meta": {"OBJECT_NAME": "DIRECTV 8", "OBJECT_ID": "2005-019A", "EPOCH": "2025-12-24T17:39:59.827968", "MEAN_MOTION": 1.00271677, "ECCENTRICITY": 0.0003026, "INCLINATION": 0.0184, "RA_OF_ASC_NODE": 29.67, "ARG_OF_PERICENTER": 253.5976, "MEAN_ANOMALY": 316.1971, "EPHEMERIS_TYPE": 0, "CLASSIFICATION_TYPE": "U", "NORAD_CAT_ID": 28659, "ELEMENT_SET_NO": 999, "REV_AT_EPOCH": 7532, "BSTAR": 0, "MEAN_MOTION_DOT": 2.2e-07, "MEAN_MOTION_DDOT": 0}, "tle": {"line1": "1 28659U 05019A   25358.73610912  .00000022  00000+0  00000+0 0  9999", "line2": "2 28659   0.0184  29.6700 0003026 253.5976 316.1971  1.00271677 75323"}}, "geometry": {"type": "Point", "coordinates": [33.8961673512885, 0.0071010134605166975]}}, {"type": "Feature", "properties": {"norad_id": 28702, "name": "GALAXY 28 (G-28)", "group": "intelsat", "lat": -0.5184931251787788, "lon": 70.3394287478135, "alt_km": 35709.16246417825, "timestamp": "2025-12-25T03:55:55.974737+00:00", "meta": {"OBJECT_NAME": "GALAXY 28 (G-28)", "OBJECT_ID": "2005-022A", "EPOCH": "2025-12-24T14:24:56.007072", "MEAN_MOTION": 1.00600166, "ECCENTRICITY": 0.000356, "INCLINATION": 2.8501, "RA_OF_ASC_NODE": 81.1437, "ARG_OF_PERICENTER": 159.0288, "MEAN_ANOMALY": 346.1954, "EPHEMERIS_TYPE": 0, "CLASSIFICATION_TYPE": "U", "NORAD_CAT_ID": 28702, "ELEMENT_SET_NO": 999, "REV_AT_EPOCH": 5022, "BSTAR": 0, "MEAN_MOTION_DOT": -2.26e-06, "MEAN_MOTION_DDOT": 0}, "tle": {"line1": "1 28702U 05022A   25358.60064823 -.00000226  00000+0  00000+0 0  9999", "line2": "2 28702   2.8501  81.1437 0003560 159.0288 346.1954  1.00600166 50229"}}, "geometry": {"type": "Point", "coordinates": [70.3394287478135, -0.5184931251787788]}}, {"type": "Feature", "properties": {"norad_id": 29236, "name": "GALAXY 16 (G-16)", "group": "intelsat", "lat": 0.006894470384892483, "lon": 53.91313452993891, "alt_km": 35794.33207976029, "timestamp": "2025-12-25T03:55:55.974749+00:00", "meta": {"OBJECT_NAME": "GALAXY 16 (G-16)", "OBJECT_ID": "2006-023A", "EPOCH": "2025-12-24T14:20:26.438208", "MEAN_MOTION": 1.00271417, "ECCENTRICITY": 0.0002563, "INCLINATION": 0.0337, "RA_OF_ASC_NODE": 185.6939, "ARG_OF_PERICENTER": 89.6659, "MEAN_ANOMALY": 294.1098, "EPHEMERIS_TYPE": 0, "CLASSIFICATION_TYPE": "U", "NORAD_CAT_ID": 29236, "ELEMENT_SET_NO": 999, "REV_AT_EPOCH": 7122, "BSTAR": 0, "MEAN_MOTION_DOT": -1.06e-06, "MEAN_MOTION_DDOT": 0}, "tle": {"line1": "1 29236U 06023A   25358.59752822 -.00000106  00000+0  00000+0 0  9992", "line2": "2 29236   0.0337 185.6939 0002563  89.6659 294.1098  1.00271417 71225"}}, "geometry": {"type": "Point", "coordinates": [53.91313452993891, 0.006894470384892483]}}, {"type": "Feature", "properties": {"norad_id": 29494, "name": "DIRECTV 9S", "group": "intelsat", "lat": -1.0129961681486337, "lon": 51.74265430787518, "alt_km": 35794.84382608892, "timestamp": "2025-12-25T03:55:55.974761+00:00", "meta": {"OBJECT_NAME": "DIRECTV 9S", "OBJECT_ID": "2006-043A", "EPOCH": "2025-12-24T14:19:48.996768", "MEAN_MOTION": 1.00271842, "ECCENTRICITY": 0.000298, "INCLINATION": 1.9689, "RA_OF_ASC_NODE": 83.0865, "ARG_OF_PERICENTER": 195.4722, "MEAN_ANOMALY": 288.5613, "EPHEMERIS_TYPE": 0, "CLASSIFICATION_TYPE": "U", "NORAD_CAT_ID": 29494, "ELEMENT_SET_NO": 999, "REV_AT_EPOCH": 4963, "BSTAR": 0, "MEAN_MOTION_DOT": -9.3e-07, "MEAN_MOTION_DDOT": 0}, "tle": {"line1": "1 29494U 06043A   25358.59709487 -.00000093  00000+0  00000+0 0  9994", "line2": "2 29494   1.9689  83.0865 0002980 195.4722 288.5613  1.00271842 49632"}}, "geometry": {"type": "Point", "coordinates": [51.74265430787518, -1.0129961681486337]}}, {"type": "Feature", "properties": {"norad_id": 31307, "name": "GALAXY 17 (G-17)", "group": "intelsat", "lat": -0.6051892680713339, "lon": 67.93376687219117, "alt_km": 35809.47881876162, "timestamp": "2025-12-25T03:55:55.974773+00:00", "meta": {"OBJECT_NAME": "GALAXY 17 (G-17)", "OBJECT_ID": "2007-016B", "EPOCH": "2025-12-24T14:24:26.054784", "MEAN_MOTION": 1.00271546, "ECCENTRICITY": 0.000552, "INCLINATION": 2.528, "RA_OF_ASC_NODE": 82.1452, "ARG_OF_PERICENTER": 171.8515, "MEAN_ANOMALY": 330.4926, "EPHEMERIS_TYPE": 0, "CLASSIFICATION_TYPE": "U", "NORAD_CAT_ID": 31307, "ELEMENT_SET_NO": 999, "REV_AT_EPOCH": 6805, "BSTAR": 0, "MEAN_MOTION_DOT": -1.86e-06, "MEAN_MOTION_DDOT": 0}, "tle": {"line1": "1 31307U 07016B   25358.60030156 -.00000186  00000+0  00000+0 0  9996", "line2": "2 31307   2.5280  82.1452 0005520 171.8515 330.4926  1.00271546 68057"}}, "geometry": {"type": "Point", "coordinates": [67.93376687219117, -0.6051892680713339]}}, {"type": "Feature", "properties": {"norad_id": 31862, "name": "DIRECTV 10", "group": "intelsat", "lat": -0.0001502619232814721, "lon": 50.11879203233844, "alt_km": 35786.72392193311, "timestamp": "2025-12-25T03:55:55.974784+00:00", "meta": {"OBJECT_NAME": "DIRECTV 10", "OBJECT_ID": "2007-032A", "EPOCH": "2025-12-24T14:19:19.046208", "MEAN_MOTION": 1.00273609, "ECCENTRICITY": 2.73e-05, "INCLINATION": 0.0207, "RA_OF_ASC_NODE": 182.1136, "ARG_OF_PERICENTER": 53.7746, "MEAN_ANOMALY": 329.5202, "EPHEMERIS_TYPE": 0, "CLASSIFICATION_TYPE": "U", "NORAD_CAT_ID": 31862, "ELEMENT_SET_NO": 999, "REV_AT_EPOCH": 4384, "BSTAR": 0, "MEAN_MOTION_DOT": -8.2e-07, "MEAN_MOTION_DDOT": 0}, "tle": {"line1": "1 31862U 07032A   25358.59674822 -.00000082  00000+0  00000+0 0  9997", "line2": "2 31862   0.0207 182.1136 0000273  53.7746 329.5202  1.00273609 43847"}}, "geometry": {"type": "Point", "coordinates": [50.11879203233844, -0.0001502619232814721]}}, {"type": "Feature", "properties": {"norad_id": 32253, "name": "INTELSAT 11 (IS-11)", "group": "intelsat", "lat": -2.7945348501316283, "lon": -35.944484492940504, "alt_km": 36120.27487922587, "timestamp": "2025-12-25T03:55:55.974796+00:00", "meta": {"OBJECT_NAME": "INTELSAT 11 (IS-11)", "OBJECT_ID": "2007-044B", "EPOCH": "2025-12-24T19:32:32.114976", "MEAN_MOTION": 0.99053048, "ECCENTRICITY": 0.00086, "INCLINATION": 3.1097, "RA_OF_ASC_NODE": 80.842, "ARG_OF_PERICENTER": 170.9854, "MEAN_ANOMALY": 307.5112, "EPHEMERIS_TYPE": 0, "CLASSIFICATION_TYPE": "U", "NORAD_CAT_ID": 32253, "ELEMENT_SET_NO": 999, "REV_AT_EPOCH": 6672, "BSTAR": 0, "MEAN_MOTION_DOT": -1.8e-06, "MEAN_MOTION_DDOT": 0}, "tle": {"line1": "1 32253U 07044B   25358.81426059 -.00000180  00000+0  00000+0 0  9996", "line2": "2 32253   3.1097  80.8420 0008600 170.9854 307.5112  0.99053048 66725"}}, "geometry": {"type": "Point", "coordinates": [-35.944484492940504, -2.7945348501316283]}}, {"type": "Feature", "properties": {"norad_id": 32388, "name": "HORIZONS-2", "group": "intelsat", "lat": -0.12049761043233392, "lon": 79.12788021081829, "alt_km": 35805.59953148894, "timestamp": "2025-12-25T03:55:55.974808+00:00", "meta": {"OBJECT_NAME": "HORIZONS-2", "OBJECT_ID": "2007-063B", "EPOCH": "2025-12-24T12:44:58.080192", "MEAN_MOTION": 1.00269872, "ECCENTRICITY": 0.000475, "INCLINATION": 2.1504, "RA_OF_ASC_NODE": 82.8335, "ARG_OF_PERICENTER": 196.2957, "MEAN_ANOMALY": 291.6227, "EPHEMERIS_TYPE": 0, "CLASSIFICATION_TYPE": "U", "NORAD_CAT_ID": 32388, "ELEMENT_SET_NO": 999, "REV_AT_EPOCH": 6606, "BSTAR": 0, "MEAN_MOTION_DOT": -2.33e-06, "MEAN_MOTION_DDOT": 0}, "tle": {"line1": "1 32388U 07063B   25358.53122778 -.00000233  00000+0  00000+0 0  9995", "line2": "2 32388   2.1504  82.8335 0004750 196.2957 291.6227  1.00269872 66064"}}, "geometry": {"type": "Point", "coordinates": [79.12788021081829, -0.12049761043233392]}}, {"type": "Feature", "properties": {"norad_id": 32729, "name": "DIRECTV 11", "group": "intelsat", "lat": -0.006687892358586592, "lon": 53.64395106734286, "alt_km": 35788.31174731051, "timestamp": "2025-12-25T03:55:55.974820+00:00", "meta": {"OBJECT_NAME": "DIRECTV 11", "OBJECT_ID": "2008-013A", "EPOCH": "2025-12-24T05:18:53.057952", "MEAN_MOTION": 1.00254729, "ECCENTRICITY": 6.191e-05, "INCLINATION": 0.0035, "RA_OF_ASC_NODE": 229.4392, "ARG_OF_PERICENTER": 193.9717, "MEAN_ANOMALY": 10.1076, "EPHEMERIS_TYPE": 0, "CLASSIFICATION_TYPE": "U", "NORAD_CAT_ID": 32729, "ELEMENT_SET_NO": 999, "REV_AT_EPOCH": 4383, "BSTAR": 0, "MEAN_MOTION_DOT": 0, "MEAN_MOTION_DDOT": 0}, "tle": {"line1": "1 32729U 08013A   25358.22144743  .00000000  00000+0  00000+0 0  9993", "line2": "2 32729   0.0035 229.4392 0000619 193.9717  10.1076  1.00254729 43830"}}, "geometry": {"type": "Point", "coordinates": [53.64395106734286, -0.006687892358586592]}}, {"type": "Feature", "properties": {"norad_id": 32951, "name": "GALAXY 18 (G-18)", "group": "intelsat", "lat": 0.020300723107983722, "lon": 29.93067718295669, "alt_km": 35790.545757952255, "timestamp": "2025-12-25T03:55:55.974832+00:00", "meta": {"OBJECT_NAME": "GALAXY 18 (G-18)", "OBJECT_ID": "2008-024A", "EPOCH": "2025-12-24T17:38:59.925120", "MEAN_MOTION": 1.00272034, "ECCENTRICITY": 0.0003021, "INCLINATION": 0.0155, "RA_OF_ASC_NODE": 316.1096, "ARG_OF_PERICENTER": 322.9393, "MEAN_ANOMALY": 316.1996, "EPHEMERIS_TYPE": 0, "CLASSIFICATION_TYPE": "U", "NORAD_CAT_ID": 32951, "ELEMENT_SET_NO": 999, "REV_AT_EPOCH": 4410, "BSTAR": 0, "MEAN_MOTION_DOT": 4.6e-07, "MEAN_MOTION_DDOT": 0}, "tle": {"line1": "1 32951U 08024A   25358.73541580  .00000046  00000+0  00000+0 0  9998", "line2": "2 32951   0.0155 316.1096 0003021 322.9393 316.1996  1.00272034 44109"}}, "geometry": {"type": "Point", "coordinates": [29.93067718295669, 0.020300723107983722]}}]}